GLOBALSTAR M084 [+]     
1 38040U 11080A   23351.99361249 -.00000074  00000+0  16342-3 0  9992
2 38040  52.0017 274.3328 0000616  35.2829  45.8711 12.62269232553568
GLOBALSTAR M080 [+]     
1 38041U 11080B   23352.13141487 -.00000070  00000+0  18830-3 0  9990
2 38041  52.0065 275.3280 0000407  36.7099  70.7847 12.62267378553705
GLOBALSTAR M082 [+]     
1 38042U 11080C   23351.98500801 -.00000075  00000+0  16045-3 0  9993
2 38042  52.0062 231.1606 0001634  72.3639  30.7109 12.62264471554398
GLOBALSTAR M092 [+]     
1 38043U 11080D   23352.11208590 -.00000088  00000+0  85949-4 0  9994
2 38043  52.0102 321.1212 0000457   7.6101  72.5017 12.62247624552867
GLOBALSTAR M090 [+]     
1 38044U 11080E   23352.79705990 -.00000094  00000+0  53966-4 0  9996
2 38044  51.9869 223.2006 0001321  77.2968 358.3086 12.62264781554657
GLOBALSTAR M086 [+]     
1 38045U 11080F   23352.82430344 -.00000093  00000+0  61058-4 0  9999
2 38045  51.9879 223.6277 0001124 127.3214 311.2196 12.62265736554667
GLOBALSTAR M097 [+]     
1 39072U 13005A   23352.59575216 -.00000105  00000+0 -43087-5 0  9999
2 39072  52.0028 138.3106 0001332 112.2162 247.8846 12.62273604501789
GLOBALSTAR M093 [+]     
1 39073U 13005B   23352.56919762 -.00000094  00000+0  53466-4 0  9992
2 39073  51.9793 132.5688 0001455 118.2767 241.8246 12.62278318501731
